CTC2_L_00266001-01
1 10000U 25002PC  26075.70043981  .00000000  00000+0  00000-0 0  9991
2 10000  65.0000   0.0000 0000000   0.0000   0.0000 13.98210060    15
CTC2_L_00266001-02
1 10001U 24673BY  26075.70043981  .00000000  00000+0  00000-0 0  9995
2 10001  65.0000   0.0000 0000000   0.0000  90.0000 13.98210060    15
CTC2_L_00266001-03
1 10002U 25068AI  26075.70043981  .00000000  00000+0  00000-0 0  9995
2 10002  65.0000   0.0000 0000000   0.0000 180.0000 13.98210060    16
CTC2_L_00266001-04
1 10003U 26001TM  26075.70043981  .00000000  00000+0  00000-0 0  9994
2 10003  65.0000   0.0000 0000000   0.0000 270.0000 13.98210060    17
CTC2_L_00266002-01
1 10004U 22696SP  26075.70043981  .00000000  00000+0  00000-0 0  9991
2 10004  65.0000  12.0000 0000000   0.0000  12.0000 13.98210060    15
CTC2_L_00266002-02
1 10005U 25878EV  26075.70043981  .00000000  00000+0  00000-0 0  9997
2 10005  65.0000  12.0000 0000000   0.0000 102.0000 13.98210060    16
CTC2_L_00266002-03
1 10006U 23867J   26075.70043981  .00000000  00000+0  00000-0 0  9994
2 10006  65.0000  12.0000 0000000   0.0000 192.0000 13.98210060    16
CTC2_L_00266002-04
1 10007U 22106QZ  26075.70043981  .00000000  00000+0  00000-0 0  9990
2 10007  65.0000  12.0000 0000000   0.0000 282.0000 13.98210060    17
CTC2_L_00266003-01
1 10008U 24213E   26075.70043981  .00000000  00000+0  00000-0 0  9992
2 10008  65.0000  24.0000 0000000   0.0000  24.0000 13.98210060    15
CTC2_L_00266003-02
1 10009U 23718HU  26075.70043981  .00000000  00000+0  00000-0 0  9992
2 10009  65.0000  24.0000 0000000   0.0000 114.0000 13.98210060    16
CTC2_L_00266003-03
1 10010U 23053MD  26075.70043981  .00000000  00000+0  00000-0 0  9996
2 10010  65.0000  24.0000 0000000   0.0000 204.0000 13.98210060    18
CTC2_L_00266003-04
1 10011U 23767QS  26075.70043981  .00000000  00000+0  00000-0 0  9999
2 10011  65.0000  24.0000 0000000   0.0000 294.0000 13.98210060    18
CTC2_L_00266004-01
1 10012U 24391YC  26075.70043981  .00000000  00000+0  00000-0 0  9994
2 10012  65.0000  36.0000 0000000   0.0000  36.0000 13.98210060    16
CTC2_L_00266004-02
1 10013U 25891NS  26075.70043981  .00000000  00000+0  00000-0 0  9991
2 10013  65.0000  36.0000 0000000   0.0000 126.0000 13.98210060    17
CTC2_L_00266004-03
1 10014U 25087BQ  26075.70043981  .00000000  00000+0  00000-0 0  9999
2 10014  65.0000  36.0000 0000000   0.0000 216.0000 13.98210060    18
CTC2_L_00266004-04
1 10015U 23909EU  26075.70043981  .00000000  00000+0  00000-0 0  9991
2 10015  65.0000  36.0000 0000000   0.0000 306.0000 13.98210060    19
CTC2_L_00266005-01
1 10016U 22142LN  26075.70043981  .00000000  00000+0  00000-0 0  9990
2 10016  65.0000  48.0000 0000000   0.0000  48.0000 13.98210060    16
CTC2_L_00266005-02
1 10017U 22710GX  26075.70043981  .00000000  00000+0  00000-0 0  9992
2 10017  65.0000  48.0000 0000000   0.0000 138.0000 13.98210060    17
CTC2_L_00266005-03
1 10018U 25229DK  26075.70043981  .00000000  00000+0  00000-0 0  9991
2 10018  65.0000  48.0000 0000000   0.0000 228.0000 13.98210060    18
CTC2_L_00266005-04
1 10019U 25236WT  26075.70043981  .00000000  00000+0  00000-0 0  9990
2 10019  65.0000  48.0000 0000000   0.0000 318.0000 13.98210060    19
CTC2_L_00266006-01
1 10020U 24884ZJ  26075.70043981  .00000000  00000+0  00000-0 0  9990
2 10020  65.0000  60.0000 0000000   0.0000  60.0000 13.98210060    19
CTC2_L_00266006-02
1 10021U 24731UK  26075.70043981  .00000000  00000+0  00000-0 0  9992
2 10021  65.0000  60.0000 0000000   0.0000 150.0000 13.98210060    10
CTC2_L_00266006-03
1 10022U 25971TE  26075.70043981  .00000000  00000+0  00000-0 0  9990
2 10022  65.0000  60.0000 0000000   0.0000 240.0000 13.98210060    11
CTC2_L_00266006-04
1 10023U 25370GM  26075.70043981  .00000000  00000+0  00000-0 0  9994
2 10023  65.0000  60.0000 0000000   0.0000 330.0000 13.98210060    12
CTC2_L_00266007-01
1 10024U 23002WQ  26075.70043981  .00000000  00000+0  00000-0 0  9995
2 10024  65.0000  72.0000 0000000   0.0000  72.0000 13.98210060    19
CTC2_L_00266007-02
1 10025U 22503AP  26075.70043981  .00000000  00000+0  00000-0 0  9991
2 10025  65.0000  72.0000 0000000   0.0000 162.0000 13.98210060    10
CTC2_L_00266007-03
1 10026U 23047X   26075.70043981  .00000000  00000+0  00000-0 0  9996
2 10026  65.0000  72.0000 0000000   0.0000 252.0000 13.98210060    11
CTC2_L_00266007-04
1 10027U 22449FQ  26075.70043981  .00000000  00000+0  00000-0 0  9992
2 10027  65.0000  72.0000 0000000   0.0000 342.0000 13.98210060    12
CTC2_L_00266008-01
1 10028U 23308TY  26075.70043981  .00000000  00000+0  00000-0 0  9998
2 10028  65.0000  84.0000 0000000   0.0000  84.0000 13.98210060    19
CTC2_L_00266008-02
1 10029U 24772YY  26075.70043981  .00000000  00000+0  00000-0 0  9995
2 10029  65.0000  84.0000 0000000   0.0000 174.0000 13.98210060    10
CTC2_L_00266008-03
1 10030U 26269VV  26075.70043981  .00000000  00000+0  00000-0 0  9990
2 10030  65.0000  84.0000 0000000   0.0000 264.0000 13.98210060    12
CTC2_L_00266008-04
1 10031U 23944YA  26075.70043981  .00000000  00000+0  00000-0 0  9998
2 10031  65.0000  84.0000 0000000   0.0000 354.0000 13.98210060    13
CTC2_L_00266009-01
1 10032U 26456CA  26075.70043981  .00000000  00000+0  00000-0 0  9990
2 10032  65.0000  96.0000 0000000   0.0000  96.0000 13.98210060    10
CTC2_L_00266009-02
1 10033U 25334TY  26075.70043981  .00000000  00000+0  00000-0 0  9995
2 10033  65.0000  96.0000 0000000   0.0000 186.0000 13.98210060    11
CTC2_L_00266009-03
1 10034U 25974SW  26075.70043981  .00000000  00000+0  00000-0 0  9996
2 10034  65.0000  96.0000 0000000   0.0000 276.0000 13.98210060    12
CTC2_L_00266009-04
1 10035U 23285XY  26075.70043981  .00000000  00000+0  00000-0 0  9990
2 10035  65.0000  96.0000 0000000   0.0000   6.0000 13.98210060    14
CTC2_L_00266010-01
1 10036U 23476WQ  26075.70043981  .00000000  00000+0  00000-0 0  9993
2 10036  65.0000 108.0000 0000000   0.0000 108.0000 13.98210060    12
CTC2_L_00266010-02
1 10037U 26371ZP  26075.70043981  .00000000  00000+0  00000-0 0  9991
2 10037  65.0000 108.0000 0000000   0.0000 198.0000 13.98210060    12
CTC2_L_00266010-03
1 10038U 26442WX  26075.70043981  .00000000  00000+0  00000-0 0  9991
2 10038  65.0000 108.0000 0000000   0.0000 288.0000 13.98210060    13
CTC2_L_00266010-04
1 10039U 25823BS  26075.70043981  .00000000  00000+0  00000-0 0  9994
2 10039  65.0000 108.0000 0000000   0.0000  18.0000 13.98210060    15
CTC2_L_00266011-01
1 10040U 23652ZJ  26075.70043981  .00000000  00000+0  00000-0 0  9994
2 10040  65.0000 120.0000 0000000   0.0000 120.0000 13.98210060    15
CTC2_L_00266011-02
1 10041U 26894NL  26075.70043981  .00000000  00000+0  00000-0 0  9996
2 10041  65.0000 120.0000 0000000   0.0000 210.0000 13.98210060    16
CTC2_L_00266011-03
1 10042U 23645DC  26075.70043981  .00000000  00000+0  00000-0 0  9998
2 10042  65.0000 120.0000 0000000   0.0000 300.0000 13.98210060    17
CTC2_L_00266011-04
1 10043U 26972UF  26075.70043981  .00000000  00000+0  00000-0 0  9995
2 10043  65.0000 120.0000 0000000   0.0000  30.0000 13.98210060    18
CTC2_L_00266012-01
1 10044U 26949DW  26075.70043981  .00000000  00000+0  00000-0 0  9990
2 10044  65.0000 132.0000 0000000   0.0000 132.0000 13.98210060    15
CTC2_L_00266012-02
1 10045U 26601DG  26075.70043981  .00000000  00000+0  00000-0 0  9996
2 10045  65.0000 132.0000 0000000   0.0000 222.0000 13.98210060    16
CTC2_L_00266012-03
1 10046U 26690SZ  26075.70043981  .00000000  00000+0  00000-0 0  9995
2 10046  65.0000 132.0000 0000000   0.0000 312.0000 13.98210060    17
CTC2_L_00266012-04
1 10047U 25797KV  26075.70043981  .00000000  00000+0  00000-0 0  9993
2 10047  65.0000 132.0000 0000000   0.0000  42.0000 13.98210060    18
CTC2_L_00266013-01
1 10048U 25381FP  26075.70043981  .00000000  00000+0  00000-0 0  9993
2 10048  65.0000 144.0000 0000000   0.0000 144.0000 13.98210060    15
CTC2_L_00266013-02
1 10049U 24818IU  26075.70043981  .00000000  00000+0  00000-0 0  9998
2 10049  65.0000 144.0000 0000000   0.0000 234.0000 13.98210060    16
CTC2_L_00266013-03
1 10050U 22993ZF  26075.70043981  .00000000  00000+0  00000-0 0  9992
2 10050  65.0000 144.0000 0000000   0.0000 324.0000 13.98210060    18
CTC2_L_00266013-04
1 10051U 26347AW  26075.70043981  .00000000  00000+0  00000-0 0  9990
2 10051  65.0000 144.0000 0000000   0.0000  54.0000 13.98210060    19
CTC2_L_00266014-01
1 10052U 24392DV  26075.70043981  .00000000  00000+0  00000-0 0  9999
2 10052  65.0000 156.0000 0000000   0.0000 156.0000 13.98210060    16
CTC2_L_00266014-02
1 10053U 23361ZL  26075.70043981  .00000000  00000+0  00000-0 0  9995
2 10053  65.0000 156.0000 0000000   0.0000 246.0000 13.98210060    17
CTC2_L_00266014-03
1 10054U 22701DP  26075.70043981  .00000000  00000+0  00000-0 0  9993
2 10054  65.0000 156.0000 0000000   0.0000 336.0000 13.98210060    18
CTC2_L_00266014-04
1 10055U 25699FB  26075.70043981  .00000000  00000+0  00000-0 0  9993
2 10055  65.0000 156.0000 0000000   0.0000  66.0000 13.98210060    19
CTC2_L_00266015-01
1 10056U 23561YF  26075.70043981  .00000000  00000+0  00000-0 0  9990
2 10056  65.0000 168.0000 0000000   0.0000 168.0000 13.98210060    16
CTC2_L_00266015-02
1 10057U 22139XG  26075.70043981  .00000000  00000+0  00000-0 0  9991
2 10057  65.0000 168.0000 0000000   0.0000 258.0000 13.98210060    17
CTC2_L_00266015-03
1 10058U 26829IA  26075.70043981  .00000000  00000+0  00000-0 0  9992
2 10058  65.0000 168.0000 0000000   0.0000 348.0000 13.98210060    18
CTC2_L_00266015-04
1 10059U 25026IX  26075.70043981  .00000000  00000+0  00000-0 0  9991
2 10059  65.0000 168.0000 0000000   0.0000  78.0000 13.98210060    19
CTC2_L_00266016-01
1 10060U 23932MN  26075.70043981  .00000000  00000+0  00000-0 0  9997
2 10060  65.0000 180.0000 0000000   0.0000 180.0000 13.98210060    19
CTC2_L_00266016-02
1 10061U 24670SV  26075.70043981  .00000000  00000+0  00000-0 0  9998
2 10061  65.0000 180.0000 0000000   0.0000 270.0000 13.98210060    10
